NORAD_CAT_ID,OBJECT_NAME,OBJECT_TYPE,EPOCH,MEAN_MOTION,ECCENTRICITY,INCLINATION,RA_OF_ASC_NODE,ARG_OF_PERICENTER,MEAN_ANOMALY,BSTAR,MEAN_MOTION_DOT,MEAN_MOTION_DDOT,TLE_LINE0,TLE_LINE1,TLE_LINE2,SEMIMAJOR_AXIS,PERIOD,APOGEE,PERIGEE,DECAYED
52347.0,STARLINK-3826,PAYLOAD,2023-02-24 22:13:09,15.0883398,0.0001251,53.2139,136.5564,112.1483,247.9642,-0.00041657,-6.91e-05,0.0,0 STARLINK-3826,1 52347U 22045S   23055.92580334 -.00006910  00000-0 -41657-3 0  9997,2 52347  53.2139 136.5564 0001251 112.1483 247.9642 15.08833980 48398,6917.899,95.438,540.629,538.898,0.0
52347.0,STARLINK-3826,PAYLOAD,2023-02-25 12:31:38,15.08819559,0.0001369,53.2136,133.8801,104.7021,255.4123,0.0011369,0.00017842,0.0,0 STARLINK-3826,1 52347U 22045S   23056.52197538  .00017842  00000-0  11369-2 0  9994,2 52347  53.2136 133.8801 0001369 104.7021 255.4123 15.08819559 48488,6917.943,95.439,540.755,538.861,0.0
52347.0,STARLINK-3826,PAYLOAD,2023-02-25 22:03:57,15.08838051,0.0001378,53.2131,132.0965,107.3067,252.8076,0.0010036,0.0001572,0.0,0 STARLINK-3826,1 52347U 22045S   23056.91941624  .00015720  00000-0  10036-2 0  9993,2 52347  53.2131 132.0965 0001378 107.3067 252.8076 15.08838051 48547,6917.886,95.438,540.705,538.798,0.0
52347.0,STARLINK-3826,PAYLOAD,2023-02-26 09:11:38,15.08868794,0.0001304,53.2133,130.0149,106.6181,253.4954,0.0015963,0.00025229,0.0,0 STARLINK-3826,1 52347U 22045S   23057.38308983  .00025229  00000-0  15963-2 0  9999,2 52347  53.2133 130.0149 0001304 106.6181 253.4954 15.08868794 48616,6917.792,95.436,540.559,538.755,0.0
52347.0,STARLINK-3826,PAYLOAD,2023-02-26 10:47:01,15.08873127,0.0001339,53.2137,129.7174,105.484,254.63,0.0016548,0.0002617,0.0,0 STARLINK-3826,1 52347U 22045S   23057.44932851  .00026170  00000-0  16548-2 0  9999,2 52347  53.2137 129.7174 0001339 105.4840 254.6300 15.08873127 48625,6917.779,95.435,540.57,538.718,0.0
52347.0,STARLINK-3826,PAYLOAD,2023-02-26 21:54:43,15.08833815,4.21e-05,53.2141,127.6357,109.0773,251.0265,-0.00069629,-0.0001135,0.0,0 STARLINK-3826,1 52347U 22045S   23057.91300643 -.00011350  00000-0 -69629-3 0  9994,2 52347  53.2141 127.6357 0000421 109.0773 251.0265 15.08833815 48694,6917.899,95.438,540.056,539.473,0.0
52347.0,STARLINK-3826,PAYLOAD,2023-02-27 10:37:49,15.0887685,0.0001227,53.214,125.255,86.0199,274.0933,0.0051428,0.00082603,0.0,0 STARLINK-3826,1 52347U 22045S   23058.44293370  .00082603  00000-0  51428-2 0  9995,2 52347  53.2140 125.2550 0001227  86.0199 274.0933 15.08876850 48775,6917.768,95.435,540.482,538.784,0.0
52347.0,STARLINK-3826,PAYLOAD,2023-02-27 21:45:30,15.08873966,0.0001124,53.2125,123.176,74.0098,286.1018,0.0024796,0.00039433,0.0,0 STARLINK-3826,1 52347U 22045S   23058.90660796  .00039433  00000-0  24796-2 0  9997,2 52347  53.2125 123.1760 0001124  74.0098 286.1018 15.08873966 48840,6917.777,95.435,540.419,538.864,0.0
52347.0,STARLINK-3826,PAYLOAD,2023-02-28 04:07:03,15.08871626,0.0001787,53.2145,121.9875,76.0521,284.0669,0.0013615,0.00021466,0.0,0 STARLINK-3826,1 52347U 22045S   23059.17156625  .00021466  00000-0  13615-2 0  9993,2 52347  53.2145 121.9875 0001787  76.0521 284.0669 15.08871626 48887,6917.784,95.436,540.885,538.413,0.0
52347.0,STARLINK-3826,PAYLOAD,2023-02-28 10:28:35,15.08880038,0.0001779,53.2153,120.7991,73.1882,286.9305,0.0012717,0.00020031,0.0,0 STARLINK-3826,1 52347U 22045S   23059.43652002  .00020031  00000-0  12717-2 0  9991,2 52347  53.2153 120.7991 0001779  73.1882 286.9305 15.08880038 48921,6917.758,95.435,540.854,538.392,0.0
52347.0,STARLINK-3826,PAYLOAD,2023-02-28 21:36:17,15.08827378,0.0001595,53.2151,118.714,88.7622,271.3553,-0.00088792,-0.00014387,0.0,0 STARLINK-3826,1 52347U 22045S   23059.90020096 -.00014387  00000-0 -88792-3 0  9991,2 52347  53.2151 118.7140 0001595  88.7622 271.3553 15.08827378 48990,6917.919,95.438,540.887,538.681,0.0
52347.0,STARLINK-3826,PAYLOAD,2023-03-01 10:19:23,15.08804333,0.0001948,53.2142,116.3346,98.6159,261.5054,-0.00060316,-9.865e-05,0.0,0 STARLINK-3826,1 52347U 22045S   23060.43013669 -.00009865  00000-0 -60316-3 0  9996,2 52347  53.2142 116.3346 0001948  98.6159 261.5054 15.08804333 49072,6917.989,95.44,541.202,538.507,0.0
52347.0,STARLINK-3826,PAYLOAD,2023-03-01 13:30:10,15.08802601,0.0001894,53.216,115.7409,99.2587,260.862,-0.00028034,-4.742e-05,0.0,0 STARLINK-3826,1 52347U 22045S   23060.56262063 -.00004742  00000-0 -28034-3 0  9994,2 52347  53.2160 115.7409 0001894  99.2587 260.8620 15.08802601 49096,6917.995,95.44,541.17,538.549,0.0
52347.0,STARLINK-3826,PAYLOAD,2023-03-02 03:48:39,15.08823672,0.000178,53.2149,113.0639,93.0974,267.0222,0.0012815,0.00020157,0.0,0 STARLINK-3826,1 52347U 22045S   23061.15879274  .00020157  00000-0  12815-2 0  9993,2 52347  53.2149 113.0639 0001780  93.0974 267.0222 15.08823672 49183,6917.93,95.439,541.027,538.564,0.0
52347.0,STARLINK-3826,PAYLOAD,2023-03-02 14:56:21,15.08863642,0.0001866,53.2144,110.9829,83.5593,276.5612,0.0019517,0.0003093,0.0,0 STARLINK-3826,1 52347U 22045S   23061.62246968  .00030930  00000-0  19517-2 0  9999,2 52347  53.2144 110.9829 0001866  83.5593 276.5612 15.08863642 49258,6917.808,95.436,540.964,538.382,0.0
52347.0,STARLINK-3826,PAYLOAD,2023-03-03 08:25:35,15.08880213,0.000192,53.2148,107.7129,78.5737,281.5471,0.0018597,0.00029466,0.0,0 STARLINK-3826,1 52347U 22045S   23062.35109977  .00029466  00000-0  18597-2 0  9997,2 52347  53.2148 107.7129 0001920  78.5737 281.5471 15.08880213 49368,6917.757,95.435,540.951,538.294,0.0
52347.0,STARLINK-3826,PAYLOAD,2023-03-03 19:33:16,15.08845252,0.0002811,53.2148,105.6292,86.3395,273.7919,-0.00043949,-7.278e-05,0.0,0 STARLINK-3826,1 52347U 22045S   23062.81477536 -.00007278  00000-0 -43949-3 0  9996,2 52347  53.2148 105.6292 0002811  86.3395 273.7919 15.08845252 49435,6917.864,95.437,541.674,537.785,0.0
52347.0,STARLINK-3826,PAYLOAD,2023-03-04 11:27:07,15.08859181,0.0001545,53.215,102.656,104.4074,255.709,0.0021348,0.00033869,0.0,0 STARLINK-3826,1 52347U 22045S   23063.47716975  .00033869  00000-0  21348-2 0  9993,2 52347  53.2150 102.6560 0001545 104.4074 255.7090 15.08859181 49539,6917.822,95.436,540.756,538.618,0.0
52347.0,STARLINK-3826,PAYLOAD,2023-03-04 19:24:03,15.0884778,0.0001516,53.214,101.1688,99.611,260.5054,0.001288,0.00020274,0.0,0 STARLINK-3826,1 52347U 22045S   23063.80837363  .00020274  00000-0  12880-2 0  9992,2 52347  53.2140 101.1688 0001516  99.6110 260.5054 15.08847780 49588,6917.857,95.437,540.77,538.673,0.0
52347.0,STARLINK-3826,PAYLOAD,2023-03-05 08:07:08,15.08839143,0.0001451,53.2139,98.7897,105.0471,255.0682,0.0016312,0.00025767,0.0,0 STARLINK-3826,1 52347U 22045S   23064.33829834  .00025767  00000-0  16312-2 0  9991,2 52347  53.2139  98.7897 0001451 105.0471 255.0682 15.08839143 49668,6917.883,95.438,540.752,538.744,0.0
52347.0,STARLINK-3826,PAYLOAD,2023-03-05 19:14:50,15.0884993,0.0001911,53.2146,96.7068,90.6272,269.4939,0.0011035,0.00017323,0.0,0 STARLINK-3826,1 52347U 22045S   23064.80197854  .00017323  00000-0  11035-2 0  9999,2 52347  53.2146  96.7068 0001911  90.6272 269.4939 15.08849930 49730,6917.85,95.437,541.037,538.393,0.0
52347.0,STARLINK-3826,PAYLOAD,2023-03-06 19:05:37,15.08838438,0.0001915,53.2135,92.2478,75.5665,284.5539,0.00014644,2.043e-05,0.0,0 STARLINK-3826,1 52347U 22045S   23065.79557318  .00002043  00000-0  14644-3 0  9996,2 52347  53.2135  92.2478 0001915  75.5665 284.5539 15.08838438 49887,6917.885,95.438,541.075,538.425,0.0
52347.0,STARLINK-3826,PAYLOAD,2023-03-07 18:56:25,15.08833824,0.0001513,53.2134,87.786,75.2873,284.8287,0.0010849,0.00017017,0.0,0 STARLINK-3826,1 52347U 22045S   23066.78918245  .00017017  00000-0  10849-2 0  9995,2 52347  53.2134  87.7860 0001513  75.2873 284.8287 15.08833824 50038,6917.899,95.438,540.811,538.718,0.0
52347.0,STARLINK-3826,PAYLOAD,2023-03-08 12:25:39,15.08862413,0.0001478,53.214,84.5129,92.5043,267.6118,0.0013322,0.00020991,0.0,0 STARLINK-3826,1 52347U 22045S   23067.51781853  .00020991  00000-0  13322-2 0  9994,2 52347  53.2140  84.5129 0001478  92.5043 267.6118 15.08862413 50149,6917.812,95.436,540.699,538.654,0.0
52347.0,STARLINK-3826,PAYLOAD,2023-03-09 05:54:54,15.0885004,0.0001378,53.2148,81.2414,100.5559,259.5589,0.00054465,8.393e-05,0.0,0 STARLINK-3826,1 52347U 22045S   23068.24645948  .00008393  00000-0  54465-3 0  9995,2 52347  53.2148  81.2414 0001378 100.5559 259.5589 15.08850040 50256,6917.85,95.437,540.668,538.761,0.0
52347.0,STARLINK-3826,PAYLOAD,2023-03-09 10:41:03,15.0885732,0.0001488,53.2149,80.3484,108.6891,251.4262,0.00084223,0.00013148,0.0,0 STARLINK-3826,1 52347U 22045S   23068.44517735  .00013148  00000-0  84223-3 0  9998,2 52347  53.2149  80.3484 0001488 108.6891 251.4262 15.08857320 50284,6917.827,95.436,540.722,538.663,0.0
52347.0,STARLINK-3826,PAYLOAD,2023-03-10 04:10:17,15.08855268,0.0002573,53.2147,77.0744,136.6461,223.4733,0.00077532,0.00012078,0.0,0 STARLINK-3826,1 52347U 22045S   23069.17381462  .00012078  00000-0  77532-3 0  9991,2 52347  53.2147  77.0744 0002573 136.6461 223.4733 15.08855268 50397,6917.834,95.437,541.479,537.919,0.0
52347.0,STARLINK-3826,PAYLOAD,2023-03-10 16:53:22,15.08845492,0.0001259,53.2153,74.6998,93.5846,266.529,0.00041439,6.314e-05,0.0,0 STARLINK-3826,1 52347U 22045S   23069.70373825  .00006314  00000-0  41439-3 0  9997,2 52347  53.2153  74.6998 0001259  93.5846 266.5290 15.08845492 50479,6917.864,95.437,540.6,538.858,0.0
52347.0,STARLINK-3826,PAYLOAD,2023-03-11 10:22:38,15.08840718,0.000135,53.2167,71.4327,107.509,252.6049,0.0013482,0.00021234,0.0,0 STARLINK-3826,1 52347U 22045S   23070.43238492  .00021234  00000-0  13482-2 0  9993,2 52347  53.2167  71.4327 0001350 107.5090 252.6049 15.08840718 50580,6917.878,95.438,540.677,538.809,0.0
52347.0,STARLINK-3826,PAYLOAD,2023-03-12 08:38:02,15.08848401,0.0001193,53.2154,67.2668,110.2561,249.8559,0.0010307,0.00016157,0.0,0 STARLINK-3826,1 52347U 22045S   23071.35975057  .00016157  00000-0  10307-2 0  9991,2 52347  53.2154  67.2668 0001193 110.2561 249.8559 15.08848401 50723,6917.855,95.437,540.545,538.894,0.0
